STARLINK-1218
1 25209C 20012AH  21325.06530552  .00002103  00000-0  14933-4 0  3257
2 25209  53.0514 164.7770 0006266 273.5704 302.8628 15.73202601    17
